WORLDVIEW-1 (WV-1)      
1 32060U 07041A   26204.78743058  .00005516  00000+0  22640-3 0  9992
2 32060  97.3901 324.0214 0002355 174.6972 185.4291 15.24631277 48458
WORLDVIEW-2 (WV-2)      
1 35946U 09055A   26204.83552628  .00000083  00000+0  41758-4 0  9998
2 35946  98.4750 277.7860 0005555 109.3414 250.8374 14.37908760880911
WORLDVIEW-3 (WV-3)      
1 40115U 14048A   26204.82157712  .00000688  00000+0  86724-4 0  9997
2 40115  97.8550 279.1465 0001903 142.2739 217.8610 14.85074303647346
